NORAD_CAT_ID,OBJECT_NAME,OBJECT_TYPE,EPOCH,MEAN_MOTION,ECCENTRICITY,INCLINATION,RA_OF_ASC_NODE,ARG_OF_PERICENTER,MEAN_ANOMALY,BSTAR,MEAN_MOTION_DOT,MEAN_MOTION_DDOT,TLE_LINE0,TLE_LINE1,TLE_LINE2,SEMIMAJOR_AXIS,PERIOD,APOGEE,PERIGEE,DECAYED
53540.0,STARLINK-4486,PAYLOAD,2024-05-31 05:46:27,15.08849136,0.0001425,53.2177,90.9875,97.2848,262.8306,8.9391e-05,1.135e-05,0.0,0 STARLINK-4486,1 53540U 22101P   24152.24059887  .00001135  00000-0  89391-4 0  9994,2 53540  53.2177  90.9875 0001425  97.2848 262.8306 15.08849136 98551,6917.852,95.437,540.703,538.732,0.0
53540.0,STARLINK-4486,PAYLOAD,2024-05-31 20:04:56,15.08840008,0.0001481,53.2177,88.3101,99.5272,260.5888,-1.5542e-05,-5.35e-06,0.0,0 STARLINK-4486,1 53540U 22101P   24152.83676686 -.00000535  00000-0 -15542-4 0  9993,2 53540  53.2177  88.3101 0001481  99.5272 260.5888 15.08840008 98641,6917.88,95.438,540.77,538.721,0.0
53540.0,STARLINK-4486,PAYLOAD,2024-06-01 05:37:15,15.08844848,0.0001424,53.2185,86.5275,94.4724,265.6431,3.1691e-05,2.17e-06,0.0,0 STARLINK-4486,1 53540U 22101P   24153.23420177  .00000217  00000-0  31691-4 0  9998,2 53540  53.2185  86.5275 0001424  94.4724 265.6431 15.08844848 99394,6917.866,95.437,540.716,538.745,0.0
53540.0,STARLINK-4486,PAYLOAD,2024-06-01 19:55:44,15.08834155,0.0001795,53.2177,83.8509,94.9868,265.1329,-7.7037e-05,-1.514e-05,0.0,0 STARLINK-4486,1 53540U 22101P   24153.83037430 -.00001514  00000-0 -77037-4 0  9997,2 53540  53.2177  83.8509 0001795  94.9868 265.1329 15.08834155 98794,6917.898,95.438,541.005,538.521,0.0
53540.0,STARLINK-4486,PAYLOAD,2024-06-02 11:49:35,15.08836042,0.0001283,53.2176,80.8779,95.8642,264.2497,6.5386e-06,-1.84e-06,0.0,0 STARLINK-4486,1 53540U 22101P   24154.49277174 -.00000184  00000-0  65386-5 0  9997,2 53540  53.2176  80.8779 0001283  95.8642 264.2497 15.08836042 99582,6917.892,95.438,540.645,538.87,0.0
53540.0,STARLINK-4486,PAYLOAD,2024-06-03 02:08:03,15.08835957,0.0001271,53.2178,78.2022,97.0858,263.0279,1.5599e-05,-4e-07,0.0,0 STARLINK-4486,1 53540U 22101P   24155.08893364 -.00000040  00000-0  15599-4 0  9999,2 53540  53.2178  78.2022 0001271  97.0858 263.0279 15.08835957 98988,6917.893,95.438,540.637,538.878,0.0
53540.0,STARLINK-4486,PAYLOAD,2024-06-03 11:40:22,15.08842574,0.0001258,53.2184,76.4181,92.6962,267.4175,3.0231e-05,1.93e-06,0.0,0 STARLINK-4486,1 53540U 22101P   24155.48637049  .00000193  00000-0  30231-4 0  9997,2 53540  53.2184  76.4181 0001258  92.6962 267.4175 15.08842574 99733,6917.873,95.437,540.608,538.867,0.0
53540.0,STARLINK-4486,PAYLOAD,2024-06-04 03:34:14,15.08838703,0.0001484,53.2188,73.4437,93.4338,266.6824,9.5927e-05,1.239e-05,0.0,0 STARLINK-4486,1 53540U 22101P   24156.14877472  .00001239  00000-0  95927-4 0  9992,2 53540  53.2188  73.4437 0001484  93.4338 266.6824 15.08838703 99141,6917.884,95.438,540.776,538.723,0.0
53540.0,STARLINK-4486,PAYLOAD,2024-06-05 11:21:56,15.08846189,0.0001209,53.2185,67.4951,90.809,269.3041,-6.4976e-05,-1.322e-05,0.0,0 STARLINK-4486,1 53540U 22101P   24157.47357337 -.00001322  00000-0 -64976-4 0  9997,2 53540  53.2185  67.4951 0001209  90.8090 269.3041 15.08846189 99343,6917.861,95.437,540.563,538.89,0.0
53540.0,STARLINK-4486,PAYLOAD,2024-06-05 17:43:29,15.08837007,0.0001298,53.218,66.3103,91.4136,268.7004,3.0121e-05,1.91e-06,0.0,0 STARLINK-4486,1 53540U 22101P   24157.73853769  .00000191  00000-0  30121-4 0  9992,2 53540  53.2180  66.3103 0001298  91.4136 268.7004 15.08837007 99386,6917.89,95.438,540.652,538.857,0.0
53540.0,STARLINK-4486,PAYLOAD,2024-06-06 03:15:48,15.0884726,0.0001381,53.2172,64.5251,93.7355,266.3795,-3.1806e-05,-7.94e-06,0.0,0 STARLINK-4486,1 53540U 22101P   24158.13597305 -.00000794  00000-0 -31806-4 0  9990,2 53540  53.2172  64.5251 0001381  93.7355 266.3795 15.08847260 99442,6917.858,95.437,540.679,538.768,0.0
53540.0,STARLINK-4486,PAYLOAD,2024-06-06 11:12:43,15.08843267,0.0001349,53.2166,63.0377,96.0956,264.019,-5.7152e-05,-1.197e-05,0.0,0 STARLINK-4486,1 53540U 22101P   24158.46717515 -.00001197  00000-0 -57152-4 0  9993,2 53540  53.2166  63.0377 0001349  96.0956 264.0190 15.08843267100186,6917.87,95.437,540.669,538.802,0.0
53540.0,STARLINK-4486,PAYLOAD,2024-06-07 22:11:13,15.08834641,0.0001184,53.2136,56.4917,109.6066,250.5054,9.069e-06,-1.44e-06,0.0,0 STARLINK-4486,1 53540U 22101P   24159.92445793 -.00000144  00000-0  90690-5 0  9996,2 53540  53.2136  56.4917 0001184 109.6066 250.5054 15.08834641100409,6917.897,95.438,540.581,538.943,0.0
53540.0,STARLINK-4486,PAYLOAD,2024-06-07 23:46:36,15.08835082,0.0001283,53.2163,56.1981,83.7596,276.3543,-3.2526e-06,-3.4e-06,0.0,0 STARLINK-4486,1 53540U 22101P   24159.99069931 -.00000340  00000-0 -32526-5 0  9992,2 53540  53.2163  56.1981 0001283  83.7596 276.3543 15.08835082 99728,6917.895,95.438,540.648,538.873,0.0
53540.0,STARLINK-4486,PAYLOAD,2024-06-08 17:15:50,15.08876905,0.0001173,53.2188,52.9255,76.6062,283.5061,-0.0005243,-8.631e-05,0.0,0 STARLINK-4486,1 53540U 22101P   24160.71932942 -.00008631  00000-0 -52430-3 0  9990,2 53540  53.2188  52.9255 0001173  76.6062 283.5061 15.08876905 99836,6917.768,95.435,540.444,538.821,0.0
53540.0,STARLINK-4486,PAYLOAD,2024-06-08 22:01:59,15.08875963,0.0001421,53.2189,52.0335,79.2605,280.8547,-0.00050819,-8.375e-05,0.0,0 STARLINK-4486,1 53540U 22101P   24160.91804661 -.00008375  00000-0 -50819-3 0  9992,2 53540  53.2189  52.0335 0001421  79.2605 280.8547 15.08875963100559,6917.77,95.435,540.618,538.652,0.0
53540.0,STARLINK-4486,PAYLOAD,2024-06-08 23:37:22,15.08842596,8.74e-05,53.2165,51.7351,92.6341,267.4751,1.6585e-05,-2.4e-07,0.0,0 STARLINK-4486,1 53540U 22101P   24160.98429380 -.00000024  00000-0  16585-4 0  9995,2 53540  53.2165  51.7351 0000874  92.6341 267.4751 15.08842596 99870,6917.872,95.437,540.342,539.133,0.0
53540.0,STARLINK-4486,PAYLOAD,2024-06-09 17:06:38,15.08830923,0.0001169,53.2178,48.4658,88.5814,271.5312,1.9775e-05,2.7e-07,0.0,0 STARLINK-4486,1 53540U 22101P   24161.71294490  .00000027  00000-0  19775-4 0  9995,2 53540  53.2178  48.4658 0001169  88.5814 271.5312 15.08830923 99986,6917.908,95.438,540.582,538.964,0.0
53540.0,STARLINK-4486,PAYLOAD,2024-06-09 23:28:10,15.08835095,0.0001328,53.2179,47.2783,84.3226,275.7918,1.401e-05,-6.5e-07,0.0,0 STARLINK-4486,1 53540U 22101P   24161.97790399 -.00000065  00000-0  14010-4 0  9992,2 53540  53.2179  47.2783 0001328  84.3226 275.7918 15.08835095100718,6917.895,95.438,540.679,538.842,0.0
53540.0,STARLINK-4486,PAYLOAD,2024-06-10 02:38:56,15.08842924,0.0001327,53.2173,46.6825,86.6481,273.4663,-1.7539e-06,-3.16e-06,0.0,0 STARLINK-4486,1 53540U 22101P   24162.11037948 -.00000316  00000-0 -17539-5 0  9993,2 53540  53.2173  46.6825 0001327  86.6481 273.4663 15.08842924100046,6917.871,95.437,540.654,538.818,0.0
53540.0,STARLINK-4486,PAYLOAD,2024-06-10 09:00:29,15.08839212,0.0001233,53.2172,45.4919,77.7984,282.3146,6.1777e-05,6.95e-06,0.0,0 STARLINK-4486,1 53540U 22101P   24162.37534053  .00000695  00000-0  61777-4 0  9990,2 53540  53.2172  45.4919 0001233  77.7984 282.3146 15.08839212100772,6917.883,95.438,540.601,538.895,0.0
53540.0,STARLINK-4486,PAYLOAD,2024-06-10 20:08:11,15.08835392,0.0001255,53.2171,43.4114,89.15,270.9636,1.0982e-05,-1.13e-06,0.0,0 STARLINK-4486,1 53540U 22101P   24162.83902612 -.00000113  00000-0  10982-4 0  9999,2 53540  53.2171  43.4114 0001255  89.1500 270.9636 15.08835392100155,6917.894,95.438,540.628,538.891,0.0
53540.0,STARLINK-4486,PAYLOAD,2024-06-10 23:18:57,15.08839034,0.00012,53.2181,42.8183,89.7585,270.3544,4.2531e-05,3.89e-06,0.0,0 STARLINK-4486,1 53540U 22101P   24162.97150282  .00000389  00000-0  42531-4 0  9991,2 53540  53.2181  42.8183 0001200  89.7585 270.3544 15.08839034100861,6917.883,95.438,540.578,538.918,0.0
53540.0,STARLINK-4486,PAYLOAD,2024-06-11 02:29:43,15.08841811,0.0001275,53.2184,42.2223,86.1641,273.9497,6.8938e-05,8.09e-06,0.0,0 STARLINK-4486,1 53540U 22101P   24163.10398072  .00000809  00000-0  68938-4 0  9994,2 53540  53.2184  42.2223 0001275  86.1641 273.9497 15.08841811100197,6917.875,95.437,540.622,538.858,0.0
53540.0,STARLINK-4486,PAYLOAD,2024-06-11 08:51:16,15.0883835,0.0001139,53.2176,41.0318,82.936,277.1761,8.3864e-05,1.047e-05,0.0,0 STARLINK-4486,1 53540U 22101P   24163.36894218  .00001047  00000-0  83864-4 0  9995,2 53540  53.2176  41.0318 0001139  82.9360 277.1761 15.08838350100926,6917.885,95.438,540.538,538.962,0.0
53540.0,STARLINK-4486,PAYLOAD,2024-06-11 23:09:44,15.08846879,0.0001205,53.2177,38.3562,78.7331,281.3796,0.00010652,1.408e-05,0.0,0 STARLINK-4486,1 53540U 22101P   24163.96509643  .00001408  00000-0  10652-3 0  9991,2 53540  53.2177  38.3562 0001205  78.7331 281.3796 15.08846879101013,6917.859,95.437,540.558,538.891,0.0
53540.0,STARLINK-4486,PAYLOAD,2024-06-12 08:42:03,15.08837887,0.0001256,53.218,36.5719,81.4096,278.7039,-9.8505e-06,-4.45e-06,0.0,0 STARLINK-4486,1 53540U 22101P   24164.36254439 -.00000445  00000-0 -98505-5 0  9993,2 53540  53.2180  36.5719 0001256  81.4096 278.7039 15.08837887100384,6917.887,95.438,540.621,538.883,0.0
53540.0,STARLINK-4486,PAYLOAD,2024-06-12 21:25:09,15.08832214,0.0001537,53.2181,34.193,82.4234,277.6932,-7.5769e-05,-1.493e-05,0.0,0 STARLINK-4486,1 53540U 22101P   24164.89247358 -.00001493  00000-0 -75769-4 0  9993,2 53540  53.2181  34.1930 0001537  82.4234 277.6932 15.08832214100469,6917.904,95.438,540.832,538.706,0.0
53540.0,STARLINK-4486,PAYLOAD,2024-06-13 08:32:50,15.088422,0.0001585,53.2192,32.1127,80.2551,279.862,1.2462e-05,-9e-07,0.0,0 STARLINK-4486,1 53540U 22101P   24165.35614466 -.00000090  00000-0  12462-4 0  9995,2 53540  53.2192  32.1127 0001585  80.2551 279.8620 15.08842200100530,6917.874,95.437,540.835,538.642,0.0
53540.0,STARLINK-4486,PAYLOAD,2024-06-13 14:54:23,15.08838641,0.0001203,53.2194,30.924,86.0259,274.0871,5.9522e-05,6.6e-06,0.0,0 STARLINK-4486,1 53540U 22101P   24165.62110440  .00000660  00000-0  59522-4 0  9998,2 53540  53.2194  30.9240 0001203  86.0259 274.0871 15.08838641101260,6917.885,95.438,540.582,538.917,0.0
